start=new Date('2022-05-10T00:00:00.000Z').valueOf();
sats=[{"ARG_OF_PERICENTER":"35.3277","MEAN_MOTION":"15.21248411","ELEMENT_SET_NO":"999","OBJECT_TYPE":"PAYLOAD","DECAY_DATE":null,"GP_ID":"203143337","MEAN_ELEMENT_THEORY":"SGP4","CLASSIFICATION_TYPE":"U","PERIOD":"94.659","RCS_SIZE":"LARGE","MEAN_MOTION_DOT":"-0.00642268","TLE_LINE2":"2 51105  53.2174  93.3394 0001906  35.3277  57.0757 15.21248411  3643","OBJECT_NAME":"STARLINK-3350","SITE":"AFETR","LAUNCH_DATE":"2022-01-19","REF_FRAME":"TEME","OBJECT_ID":"2022-005B","COUNTRY_CODE":"US","EPOCH":"2022-05-09T22:00:00.999936","NORAD_CAT_ID":"51105","APOAPSIS":"503.387","REV_AT_EPOCH":"364","FILE":"3438010","EPHEMERIS_TYPE":"0","TIME_SYSTEM":"UTC","MEAN_ANOMALY":"57.0757","CENTER_NAME":"EARTH","RA_OF_ASC_NODE":"93.3394","TLE_LINE1":"1 51105U 22005B   22129.91667824 -.00642268  00000-0 -30558-1 0  9992","INCLINATION":"53.2174","ECCENTRICITY":"0.00019060","SEMIMAJOR_AXIS":"6880.211","PERIAPSIS":"500.765","BSTAR":"-0.03055800000000","MEAN_MOTION_DDOT":"0.0000000000000"},{"OBJECT_ID":"2022-005C","EPOCH":"2022-05-10T00:00:00.999648","COUNTRY_CODE":"US","REF_FRAME":"TEME","OBJECT_NAME":"STARLINK-3176","SITE":"AFETR","LAUNCH_DATE":"2022-01-19","TLE_LINE2":"2 51106  53.2168  92.9502 0001767  37.7707 315.0873 15.19695410 18679","CLASSIFICATION_TYPE":"U","MEAN_ELEMENT_THEORY":"SGP4","GP_ID":"203119814","MEAN_MOTION_DOT":"-0.00640652","RCS_SIZE":"LARGE","PERIOD":"94.756","ELEMENT_SET_NO":"999","MEAN_MOTION":"15.19695410","ARG_OF_PERICENTER":"37.7707","DECAY_DATE":null,"OBJECT_TYPE":"PAYLOAD","BSTAR":"-0.03189800000000","SEMIMAJOR_AXIS":"6884.897","PERIAPSIS":"505.546","MEAN_MOTION_DDOT":"0.0000000000000","INCLINATION":"53.2168","ECCENTRICITY":"0.00017670","CENTER_NAME":"EARTH","MEAN_ANOMALY":"315.0873","TIME_SYSTEM":"UTC","EPHEMERIS_TYPE":"0","TLE_LINE1":"1 51106U 22005C   22130.00001157 -.00640652  00000-0 -31898-1 0  9999","RA_OF_ASC_NODE":"92.9502","REV_AT_EPOCH":"1867","NORAD_CAT_ID":"51106","APOAPSIS":"507.979","FILE":"3437983"},{"TLE_LINE2":"2 51107  53.2165 102.9297 0001847  56.4068 358.8559 15.08812986  3607","REF_FRAME":"TEME","SITE":"AFETR","LAUNCH_DATE":"2022-01-19","OBJECT_NAME":"STARLINK-3368","OBJECT_ID":"2022-005D","EPOCH":"2022-05-09T22:00:00.999936","COUNTRY_CODE":"US","ELEMENT_SET_NO":"999","MEAN_MOTION":"15.08812986","ARG_OF_PERICENTER":"56.4068","DECAY_DATE":null,"OBJECT_TYPE":"PAYLOAD","GP_ID":"203144338","CLASSIFICATION_TYPE":"U","MEAN_ELEMENT_THEORY":"SGP4","PERIOD":"95.439","MEAN_MOTION_DOT":"0.00027302","RCS_SIZE":"LARGE","INCLINATION":"53.2165","ECCENTRICITY":"0.00018470","PERIAPSIS":"538.550","SEMIMAJOR_AXIS":"6917.963","BSTAR":"0.00172810000000","MEAN_MOTION_DDOT":"0.0000000000000","NORAD_CAT_ID":"51107","APOAPSIS":"541.106","REV_AT_EPOCH":"360","FILE":"3438010","TIME_SYSTEM":"UTC","EPHEMERIS_TYPE":"0","CENTER_NAME":"EARTH","MEAN_ANOMALY":"358.8559","RA_OF_ASC_NODE":"102.9297","TLE_LINE1":"1 51107U 22005D   22129.91667824  .00027302  00000-0  17281-2 0  9997"},{"FILE":"3438010","NORAD_CAT_ID":"51108","APOAPSIS":"503.058","REV_AT_EPOCH":"364","RA_OF_ASC_NODE":"93.3394","TLE_LINE1":"1 51108U 22005E   22129.91667824 -.00642645  00000-0 -30474-1 0  9991","EPHEMERIS_TYPE":"0","TIME_SYSTEM":"UTC","MEAN_ANOMALY":"72.8155","CENTER_NAME":"EARTH","ECCENTRICITY":"0.00019290","INCLINATION":"53.2175","MEAN_MOTION_DDOT":"0.0000000000000","PERIAPSIS":"500.404","SEMIMAJOR_AXIS":"6879.866","BSTAR":"-0.03047400000000","OBJECT_TYPE":"PAYLOAD","DECAY_DATE":null,"MEAN_MOTION":"15.21362923","ARG_OF_PERICENTER":"35.8362","ELEMENT_SET_NO":"999","PERIOD":"94.652","RCS_SIZE":"LARGE","MEAN_MOTION_DOT":"-0.00642645","GP_ID":"203144076","MEAN_ELEMENT_THEORY":"SGP4","CLASSIFICATION_TYPE":"U","TLE_LINE2":"2 51108  53.2175  93.3394 0001929  35.8362  72.8155 15.21362923  3644","LAUNCH_DATE":"2022-01-19","SITE":"AFETR","OBJECT_NAME":"STARLINK-3362","REF_FRAME":"TEME","COUNTRY_CODE":"US","EPOCH":"2022-05-09T22:00:00.999936","OBJECT_ID":"2022-005E"},{"TIME_SYSTEM":"UTC","EPHEMERIS_TYPE":"0","CENTER_NAME":"EARTH","MEAN_ANOMALY":"261.4884","RA_OF_ASC_NODE":"94.1426","TLE_LINE1":"1 51109U 22005F   22129.91667824 -.00418699  00000-0 -17030-1 0  9995","NORAD_CAT_ID":"51109","APOAPSIS":"489.109","REV_AT_EPOCH":"363","FILE":"3438010","PERIAPSIS":"486.958","SEMIMAJOR_AXIS":"6866.169","BSTAR":"-0.01703000000000","MEAN_MOTION_DDOT":"0.0000000000000","INCLINATION":"53.2176","ECCENTRICITY":"0.00015660","GP_ID":"203142838","CLASSIFICATION_TYPE":"U","MEAN_ELEMENT_THEORY":"SGP4","PERIOD":"94.369","RCS_SIZE":"LARGE","MEAN_MOTION_DOT":"-0.00418699","ELEMENT_SET_NO":"999","MEAN_MOTION":"15.25917524","ARG_OF_PERICENTER":"50.5460","DECAY_DATE":null,"OBJECT_TYPE":"PAYLOAD","OBJECT_ID":"2022-005F","EPOCH":"2022-05-09T22:00:00.999936","COUNTRY_CODE":"US","TLE_LINE2":"2 51109  53.2176  94.1426 0001566  50.5460 261.4884 15.25917524  3632","REF_FRAME":"TEME","OBJECT_NAME":"STARLINK-3358","SITE":"AFETR","LAUNCH_DATE":"2022-01-19"},{"ECCENTRICITY":"0.00018620","INCLINATION":"53.2176","MEAN_MOTION_DDOT":"0.0000000000000","BSTAR":"-0.03029900000000","PERIAPSIS":"499.760","SEMIMAJOR_AXIS":"6879.176","FILE":"3438010","REV_AT_EPOCH":"365","NORAD_CAT_ID":"51110","APOAPSIS":"502.321","TLE_LINE1":"1 51110U 22005G   22129.91667824 -.00643237  00000-0 -30299-1 0  9997","RA_OF_ASC_NODE":"93.3391","MEAN_ANOMALY":"100.3176","CENTER_NAME":"EARTH","EPHEMERIS_TYPE":"0","TIME_SYSTEM":"UTC","LAUNCH_DATE":"2022-01-19","SITE":"AFETR","OBJECT_NAME":"STARLINK-3344","REF_FRAME":"TEME","TLE_LINE2":"2 51110  53.2176  93.3391 0001862  40.7280 100.3176 15.21591863  3653","COUNTRY_CODE":"US","EPOCH":"2022-05-09T22:00:00.999936","OBJECT_ID":"2022-005G","DECAY_DATE":null,"OBJECT_TYPE":"PAYLOAD","MEAN_MOTION":"15.21591863","ARG_OF_PERICENTER":"40.7280","ELEMENT_SET_NO":"999","MEAN_MOTION_DOT":"-0.00643237","RCS_SIZE":"LARGE","PERIOD":"94.638","MEAN_ELEMENT_THEORY":"SGP4","CLASSIFICATION_TYPE":"U","GP_ID":"203143085"},{"ECCENTRICITY":"0.00017450","INCLINATION":"53.2162","MEAN_MOTION_DDOT":"0.0000000000000","BSTAR":"-0.02452600000000","PERIAPSIS":"504.127","SEMIMAJOR_AXIS":"6883.463","FILE":"3438010","REV_AT_EPOCH":"361","NORAD_CAT_ID":"51111","APOAPSIS":"506.529","TLE_LINE1":"1 51111U 22005H   22129.91667824 -.00502383  00000-0 -24526-1 0  9990","RA_OF_ASC_NODE":"93.3342","MEAN_ANOMALY":"273.5260","CENTER_NAME":"EARTH","EPHEMERIS_TYPE":"0","TIME_SYSTEM":"UTC","LAUNCH_DATE":"2022-01-19","SITE":"AFETR","OBJECT_NAME":"STARLINK-3173","REF_FRAME":"TEME","TLE_LINE2":"2 51111  53.2162  93.3342 0001745  49.7211 273.5260 15.20170377  3613","COUNTRY_CODE":"US","EPOCH":"2022-05-09T22:00:00.999936","OBJECT_ID":"2022-005H","DECAY_DATE":null,"OBJECT_TYPE":"PAYLOAD","MEAN_MOTION":"15.20170377","ARG_OF_PERICENTER":"49.7211","ELEMENT_SET_NO":"999","RCS_SIZE":"LARGE","MEAN_MOTION_DOT":"-0.00502383","PERIOD":"94.726","MEAN_ELEMENT_THEORY":"SGP4","CLASSIFICATION_TYPE":"U","GP_ID":"203143839"},{"DECAY_DATE":null,"OBJECT_TYPE":"PAYLOAD","ELEMENT_SET_NO":"999","ARG_OF_PERICENTER":"33.6574","MEAN_MOTION":"15.22990138","MEAN_MOTION_DOT":"-0.00642850","RCS_SIZE":"LARGE","PERIOD":"94.551","CLASSIFICATION_TYPE":"U","MEAN_ELEMENT_THEORY":"SGP4","GP_ID":"203144576","REF_FRAME":"TEME","LAUNCH_DATE":"2022-01-19","SITE":"AFETR","OBJECT_NAME":"STARLINK-3374","TLE_LINE2":"2 51112  53.2176  93.3363 0001991  33.6574  77.8476 15.22990138  3643","EPOCH":"2022-05-09T22:00:00.999936","COUNTRY_CODE":"US","OBJECT_ID":"2022-005J","FILE":"3438010","REV_AT_EPOCH":"364","APOAPSIS":"498.198","NORAD_CAT_ID":"51112","TLE_LINE1":"1 51112U 22005J   22129.91667824 -.00642850  00000-0 -29048-1 0  9999","RA_OF_ASC_NODE":"93.3363","CENTER_NAME":"EARTH","MEAN_ANOMALY":"77.8476","TIME_SYSTEM":"UTC","EPHEMERIS_TYPE":"0","ECCENTRICITY":"0.00019910","INCLINATION":"53.2176","MEAN_MOTION_DDOT":"0.0000000000000","BSTAR":"-0.02904800000000","SEMIMAJOR_AXIS":"6874.964","PERIAPSIS":"495.460"},{"MEAN_ANOMALY":"223.4807","CENTER_NAME":"EARTH","EPHEMERIS_TYPE":"0","TIME_SYSTEM":"UTC","TLE_LINE1":"1 51113U 22005K   22129.91667824 -.00642911  00000-0 -31805-1 0  9992","RA_OF_ASC_NODE":"93.3307","REV_AT_EPOCH":"364","NORAD_CAT_ID":"51113","APOAPSIS":"507.199","FILE":"3438010","BSTAR":"-0.03180500000000","SEMIMAJOR_AXIS":"6884.203","PERIAPSIS":"504.937","MEAN_MOTION_DDOT":"0.0000000000000","INCLINATION":"53.2175","ECCENTRICITY":"0.00016430","MEAN_ELEMENT_THEORY":"SGP4","CLASSIFICATION_TYPE":"U","GP_ID":"203143338","MEAN_MOTION_DOT":"-0.00642911","RCS_SIZE":"LARGE","PERIOD":"94.741","MEAN_MOTION":"15.19925326","ARG_OF_PERICENTER":"49.8815","ELEMENT_SET_NO":"999","DECAY_DATE":null,"OBJECT_TYPE":"PAYLOAD","OBJECT_ID":"2022-005K","COUNTRY_CODE":"US","EPOCH":"2022-05-09T22:00:00.999936","SITE":"AFETR","LAUNCH_DATE":"2022-01-19","OBJECT_NAME":"STARLINK-3372","REF_FRAME":"TEME","TLE_LINE2":"2 51113  53.2175  93.3307 0001643  49.8815 223.4807 15.19925326  3642"},{"SITE":"AFETR","LAUNCH_DATE":"2022-01-19","OBJECT_NAME":"STARLINK-3375","REF_FRAME":"TEME","TLE_LINE2":"2 51114  53.2175  93.3392 0002002  34.6587  90.2071 15.21477343  3653","COUNTRY_CODE":"US","EPOCH":"2022-05-09T22:00:00.999936","OBJECT_ID":"2022-005L","DECAY_DATE":null,"OBJECT_TYPE":"PAYLOAD","ARG_OF_PERICENTER":"34.6587","MEAN_MOTION":"15.21477343","ELEMENT_SET_NO":"999","MEAN_MOTION_DOT":"-0.00642865","RCS_SIZE":"LARGE","PERIOD":"94.645","MEAN_ELEMENT_THEORY":"SGP4","CLASSIFICATION_TYPE":"U","GP_ID":"203143585","ECCENTRICITY":"0.00020020","INCLINATION":"53.2175","MEAN_MOTION_DDOT":"0.0000000000000","BSTAR":"-0.03038200000000","SEMIMAJOR_AXIS":"6879.521","PERIAPSIS":"500.008","FILE":"3438010","REV_AT_EPOCH":"365","APOAPSIS":"502.763","NORAD_CAT_ID":"51114","TLE_LINE1":"1 51114U 22005L   22129.91667824 -.00642865  00000-0 -30382-1 0  9990","RA_OF_ASC_NODE":"93.3392","MEAN_ANOMALY":"90.2071","CENTER_NAME":"EARTH","EPHEMERIS_TYPE":"0","TIME_SYSTEM":"UTC"}];
